OBJECT_NAME,OBJECT_ID,EPOCH,MEAN_MOTION,ECCENTRICITY,INCLINATION,RA_OF_ASC_NODE,ARG_OF_PERICENTER,MEAN_ANOMALY,EPHEMERIS_TYPE,CLASSIFICATION_TYPE,NORAD_CAT_ID,ELEMENT_SET_NO,REV_AT_EPOCH,BSTAR,MEAN_MOTION_DOT,MEAN_MOTION_DDOT
LEMUR-2-GREENBERG,2017-042N,2026-06-13T11:49:49.121760,15.31222679,.00088709,97.3810,345.1354,27.0872,333.0831,0,U,42837,999,48782,.52907886E-3,.15913E-3,0
LEMUR-2-MONSON,2017-042Q,2026-06-13T11:50:55.917600,15.27920538,.00065573,97.4071,345.1140,19.5927,340.5563,0,U,42839,999,48760,.49410757E-3,.13408E-3,0
LEMUR-2-DEMBITZ,2017-042T,2026-06-13T10:31:45.049440,15.30187922,.00070994,97.3816,346.0663,41.5109,318.6670,0,U,42842,999,48777,.55395245E-3,.16133E-3,0
LEMUR-2-ZACHARY,2017-042W,2026-06-13T12:15:05.209344,15.49965643,.00031793,97.3595,356.0704,47.2537,312.8981,0,U,42845,999,48863,.80473444E-3,.45148E-3,0
LEMUR-2-SPECIAL-K,2021-034F,2026-06-13T04:22:41.112192,15.63381328,.00038184,97.5659,250.7526,230.6982,129.3938,0,U,48273,999,28106,.15333812E-2,.143233E-2,0
LEMUR-2-BASS,2023-174D,2026-06-13T12:19:56.119008,15.42979413,.00074302,97.3852,249.1747,174.1147,186.0189,0,U,58259,999,14479,.40199062E-3,.1765E-3,0
LEMUR-2-JK0903EM1407,2023-174CJ,2026-06-13T05:01:59.037312,15.51486430,.00058848,97.3923,254.5683,130.7787,229.3977,0,U,58336,999,14511,.46206564E-3,.27267E-3,0
LEMUR-2-VALHALLA,2024-022B,2026-06-13T13:34:07.599072,15.39571585,.00107561,97.4110,14.5148,123.3126,236.9151,0,U,58900,999,13171,.41520967E-3,.16297E-3,0
LEMUR-2-OBA-NI-JESU,2024-022D,2026-06-13T06:27:58.466016,16.36778297,.0009182,97.3603,29.4721,248.5343,111.4976,0,U,58902,999,13270,.90464E-3,.7840474E-1,.25257E-5
LEMUR-2-JOHNNYTRUONG,2024-043BA,2026-06-13T08:47:29.327424,15.60197430,.0004622,97.5366,315.8339,187.9911,172.1272,0,U,59146,999,12744,.47218344E-3,.38449E-3,0
LEMUR-2-TOMATOKECHUP,2024-149D,2026-06-13T11:01:08.951232,15.35957245,.00010832,97.3805,246.4961,183.1301,176.9936,0,U,60471,999,10159,.32468849E-3,.11289E-3,0
LEMUR-2-STELLA,2024-149BT,2026-06-13T04:14:18.987360,15.11727469,.00015883,97.6743,246.6137,97.0361,263.1050,0,U,60533,999,9989,.72757888E-3,.12344E-3,0
LEMUR-2-MARHISYAM,2024-149BW,2026-06-13T14:51:19.426176,15.11195984,.0003408,97.6890,247.5034,122.5361,237.6198,0,U,60536,999,9994,.68704709E-3,.11482E-3,0
LEMUR-2-LLOYD,2024-149DP,2026-06-13T11:05:15.749376,15.09169876,.00047223,97.6752,245.5889,149.3052,210.8454,0,U,60577,999,9983,.60148502E-3,.9497E-4,0
LEMUR-2-SQUIRRELCOMM,2024-149DQ,2026-06-13T11:18:18.006336,15.07113287,.00068181,97.6717,245.3938,72.7757,287.4216,0,U,60578,999,9984,.38801581E-3,.5768E-4,0
LEMUR-2-SIERRINI,2024-149DR,2026-06-13T04:16:32.998080,15.10865824,.00054977,97.6846,246.7521,178.2870,181.8379,0,U,60579,999,9985,.70971409E-3,.11758E-3,0
LEMUR-2-WILSON,2025-009CP,2026-06-13T05:07:18.015744,14.95147685,.00042991,97.7024,242.7475,65.9821,294.1850,0,U,62694,999,7676,.20723703E-3,.2218E-4,0
LEMUR-2-STAR-FOX,2025-009CR,2026-06-13T13:30:49.898592,15.02454458,.00034917,97.6959,246.1975,119.9457,240.2115,0,U,62696,999,7701,.63421322E-3,.8356E-4,0
