{"fetched_at":"2026-06-14T03:48:42Z","count":16735,"tles":[{"name":"LEMUR-2-STELLA","line1":"1 60533U 24149BT  26164.17660865  .00012344  00000+0  72758-3 0  9990","line2":"2 60533  97.6743 246.6137 0001588  97.0361 263.1050 15.11727469 99897","category":"Other"},{"name":"LEMUR-2-LLOYD","line1":"1 60577U 24149DP  26164.46198784  .00009497  00000+0  60149-3 0  9992","line2":"2 60577  97.6752 245.5889 0004722 149.3052 210.8454 15.09169876 99838","category":"Other"},{"name":"LEMUR-2-SPECIAL-K","line1":"1 48273U 21034F   26164.18242028  .00143233  00000+0  15334-2 0  9993","line2":"2 48273  97.5659 250.7526 0003818 230.6982 129.3938 15.63381328281066","category":"Other"},{"name":"LEMUR-2-SIERRINI","line1":"1 60579U 24149DR  26164.17815970  .00011758  00000+0  70971-3 0  9992","line2":"2 60579  97.6846 246.7521 0005497 178.2870 181.8379 15.10865824 99852","category":"Other"},{"name":"LEMUR-2-GREENBERG","line1":"1 42837U 17042N   26164.49292965  .00015913  00000+0  52908-3 0  9998","line2":"2 42837  97.3810 345.1354 0008870  27.0872 333.0831 15.31222679487826","category":"Other"},{"name":"LEMUR-2-JK0903EM1407","line1":"1 58336U 23174CJ  26164.20971108  .00027267  00000+0  46207-3 0  9994","line2":"2 58336  97.3923 254.5683 0005884 130.7787 229.3977 15.51486430145119","category":"Other"},{"name":"LEMUR-2-TOMATOKECHUP","line1":"1 60471U 24149D   26164.45913138  .00011289  00000+0  32469-3 0  9998","line2":"2 60471  97.3805 246.4961 0001083 183.1301 176.9936 15.35957245101596","category":"Other"},{"name":"LEMUR-2-STAR-FOX","line1":"1 62696U 25009CR  26164.56307753  .00008356  00000+0  63421-3 0  9990","line2":"2 62696  97.6959 246.1975 0003491 119.9457 240.2115 15.02454458 77011","category":"Other"},{"name":"LEMUR-2-MARHISYAM","line1":"1 60536U 24149BW  26164.61897484  .00011482  00000+0  68705-3 0  9990","line2":"2 60536  97.6890 247.5034 0003408 122.5361 237.6198 15.11195984 99942","category":"Other"},{"name":"LEMUR-2-DEMBITZ","line1":"1 42842U 17042T   26164.43871585  .00016133  00000+0  55395-3 0  9997","line2":"2 42842  97.3816 346.0663 0007099  41.5109 318.6670 15.30187922487771","category":"Other"},{"name":"LEMUR-2-MONSON","line1":"1 42839U 17042Q   26164.49370275  .00013408  00000+0  49411-3 0  9993","line2":"2 42839  97.4071 345.1140 0006557  19.5927 340.5563 15.27920538487603","category":"Other"},{"name":"LEMUR-2-ZACHARY","line1":"1 42845U 17042W   26164.51047696  .00045148  00000+0  80473-3 0  9990","line2":"2 42845  97.3595 356.0704 0003179  47.2537 312.8981 15.49965643488639","category":"Other"},{"name":"LEMUR-2-VALHALLA","line1":"1 58900U 24022B   26164.56536573  .00016297  00000+0  41521-3 0  9991","line2":"2 58900  97.4110  14.5148 0010756 123.3126 236.9151 15.39571585131715","category":"Other"},{"name":"LEMUR-2-BASS","line1":"1 58259U 23174D   26164.51384397  .00017650  00000+0  40199-3 0  9999","line2":"2 58259  97.3852 249.1747 0007430 174.1147 186.0189 15.42979413144791","category":"Other"},{"name":"LEMUR-2-SQUIRRELCOMM","line1":"1 60578U 24149DQ  26164.47104174  .00005768  00000+0  38802-3 0  9992","line2":"2 60578  97.6717 245.3938 0006818  72.7757 287.4216 15.07113287 99842","category":"Other"},{"name":"LEMUR-2-WILSON","line1":"1 62694U 25009CP  26164.21340296  .00002218  00000+0  20724-3 0  9999","line2":"2 62694  97.7024 242.7475 0004299  65.9821 294.1850 14.95147685 76769","category":"Other"},{"name":"LEMUR-2-JOHNNYTRUONG","line1":"1 59146U 24043BA  26164.36631166  .00038449  00000+0  47218-3 0  9991","line2":"2 59146  97.5366 315.8339 0004622 187.9911 172.1272 15.60197430127441","category":"Other"},{"name":"LEMUR-2-OBA-NI-JESU","line1":"1 58902U 24022D   26164.26942669  .07840474  25257-5  90464-3 0  9993","line2":"2 58902  97.3603  29.4721 0009182 248.5343 111.4976 16.36778297132706","category":"Other"}]}